 Automated mail xmit by MAIL_REQUEST, PID= 143139 Mon Jul 31 11:13:05 2017
++++++++++++++++++++++++++++++++ (part 1 of 1)  +++++++++++++++++++++++++++++++

*******************************************************************************
JPL/HORIZONS                       4 Vesta                 2017-Jul-31 11:13:05
Rec #:     4 (+COV)   Soln.date: 2017-Apr-04_16:32:33   # obs: 9325 (1950-2017)
 
IAU76/J2000 helio. ecliptic osc. elements (au, days, deg., period=Julian yrs): 
 
  EPOCH=  2448953.5 ! 1992-Nov-27.00 (TDB)         Residual RMS= .50575        
   EC= .08940671368300425  QR= 2.149926234697652   TP= 2448965.6989691556      
   OM= 103.9831114166946   W=  150.0028930287553   IN= 7.135497649691238       
   A= 2.361017006168899    MA= 356.6858013642077   ADIST= 2.572107777640145    
   PER= 3.62791            N= .271678574           ANGMOM= .026326204          
   DAN= 2.53872            DDN= 2.17382            L= 254.1785129              
   B= 3.560513             MOID= 1.13638997        TP= 1992-Dec-09.1989691556  
 
Asteroid physical parameters (km, seconds, rotational period in hours):        
   GM= 17.8                RAD= 262.7              ROTPER= 5.342128            
   H= 3.2                  G= .320                 B-V= .782                   
                           ALBEDO= .4228           STYP= V                     
 
ASTEROID comments: 
1: soln ref.= JPL#34, OCC=0           radar(2977 delay, 0 Dop
2: source=ORB
*******************************************************************************
 
 
*******************************************************************************
Ephemeris / MAIL_REQUEST Mon Jul 31 11:13:05 2017 Pasadena, USA  / Horizons    
*******************************************************************************
Target body name: 4 Vesta                         {source: JPL#34}
Center body name: Solar System Barycenter (0)     {source: DE431}
Center-site name: BODY CENTER
*******************************************************************************
Start time      : A.D. 2017-Jul-10 00:00:00.0000 TDB
Stop  time      : A.D. 2020-Aug-13 00:00:00.0000 TDB
Step-size       : 1440 minutes
*******************************************************************************
Center geodetic : 0.00000000,0.00000000,0.0000000 {E-lon(deg),Lat(deg),Alt(km)}
Center cylindric: 0.00000000,0.00000000,0.0000000 {E-lon(deg),Dxy(km),Dz(km)}
Center radii    : (undefined)                                                  
Small perturbers: Yes                             {source: SB431-N16}
Output units    : KM-S                                                         
Output type     : GEOMETRIC cartesian states
Output format   : 3 (position, velocity, LT, range, range-rate)
Reference frame : ICRF/J2000.0                                                 
Coordinate systm: Ecliptic and Mean Equinox of Reference Epoch                 
*******************************************************************************
Initial IAU76/J2000 heliocentric ecliptic osculating elements (au, days, deg.):
  EPOCH=  2448953.5 ! 1992-Nov-27.00 (TDB)         Residual RMS= .50575        
   EC= .08940671368300425  QR= 2.149926234697652   TP= 2448965.6989691556      
   OM= 103.9831114166946   W=  150.0028930287553   IN= 7.135497649691238       
  Equivalent ICRF heliocentric equatorial cartesian coordinates (au, au/d):
   X=-7.262352986344842E-01  Y=-1.911310137901048E+00  Z=-6.659499008373883E-01
  VX= 1.145208333797262E-02 VY=-3.294506484840738E-03 VZ=-2.808133774681220E-03
Asteroid physical parameters (km, seconds, rotational period in hours):        
   GM= 17.8                RAD= 262.7              ROTPER= 5.342128            
   H= 3.2                  G= .320                 B-V= .782                   
                           ALBEDO= .4228           STYP= V                     
*******************************************************************************
            JDTDB,            Calendar Date (TDB),                      X,                      Y,                      Z,                     VX,                     VY,                     VZ,                     LT,                     RG,                     RR,
**************************************************************************************************************************************************************************************************************************************************************************
$$SOE
2458084.500000000, A.D. 2017-Nov-27 00:00:00.0000, -3.041816747300288E+08, -1.259592203674742E+08,  4.081437171320727E+07,  9.091346362493477E+00, -1.842720581782406E+01, -5.548280008394757E-01,  1.106598719291644E+03,  3.317499500760940E+08, -1.407654891540939E+00,
2458085.500000000, A.D. 2017-Nov-28 00:00:00.0000, -3.033920778951538E+08, -1.275496131699692E+08,  4.076588359613425E+07,  9.186333847582217E+00, -1.838735243922426E+01, -5.675818558056331E-01,  1.106193866974127E+03,  3.316285784046987E+08, -1.401867117469366E+00,
2458086.500000000, A.D. 2017-Nov-29 00:00:00.0000, -3.025942804889469E+08, -1.291365393278287E+08,  4.071629361956401E+07,  9.281173840077205E+00, -1.834695943840401E+01, -5.803339384996091E-01,  1.105790689101586E+03,  3.315077087192782E+08, -1.396034861429740E+00,
2458087.500000000, A.D. 2017-Nov-30 00:00:00.0000, -3.017882954006649E+08, -1.307199522243129E+08,  4.066560195458484E+07,  9.375862961642124E+00, -1.830602697269142E+01, -5.930838328328392E-01,  1.105389198480086E+03,  3.313873448589947E+08, -1.390158218276862E+00,
2458088.500000000, A.D. 2017-Dec-01 00:00:00.0000, -3.009741358117355E+08, -1.322998052573370E+08,  4.061380880830131E+07,  9.470397827429727E+00, -1.826455522402722E+01, -6.058311211850160E-01,  1.104989407888002E+03,  3.312674906547088E+08, -1.384237285321826E+00,
2458089.500000000, A.D. 2017-Dec-02 00:00:00.0000, -3.001518151963110E+08, -1.338760518416047E+08,  4.056091442396589E+07,  9.564775046281007E+00, -1.822254439910536E+01, -6.185753844242843E-01,  1.104591330075310E+03,  3.311481499287664E+08, -1.378272162340741E+00,
2458090.500000000, A.D. 2017-Dec-03 00:00:00.0000, -2.993213473218057E+08, -1.354486454107519E+08,  4.050691908110858E+07,  9.658991220925582E+00, -1.817999472951264E+01, -6.313162019274561E-01,  1.104194977762872E+03,  3.310293264947867E+08, -1.372262951581915E+00,
2458091.500000000, A.D. 2017-Dec-04 00:00:00.0000, -2.984827462494143E+08, -1.370175394195044E+08,  4.045182309566494E+07,  9.753042948184609E+00, -1.813690647186638E+01, -6.440531516006356E-01,  1.103800363641727E+03,  3.309110241574473E+08, -1.366209757773011E+00,
2458092.500000000, A.D. 2017-Dec-05 00:00:00.0000, -2.976360263346145E+08, -1.385826873458456E+08,  4.039562682010219E+07,  9.846926819175897E+00, -1.809327990795024E+01, -6.567858099001436E-01,  1.103407500372374E+03,  3.307932467122700E+08, -1.360112688127914E+00,
2458093.500000000, A.D. 2017-Dec-06 00:00:00.0000, -2.967812022276502E+08, -1.401440426931972E+08,  4.033833064354362E+07,  9.940639419521421E+00, -1.804911534484830E+01, -6.695137518538115E-01,  1.103016400584052E+03,  3.306759979454057E+08, -1.353971852353419E+00,
2458094.500000000, A.D. 2017-Dec-07 00:00:00.0000, -2.959182888739973E+08, -1.417015589926108E+08,  4.027993499189101E+07,  1.003417732955616E+01, -1.800441311507725E+01, -6.822365510823989E-01,  1.102627076874024E+03,  3.305592816334188E+08, -1.347787362654749E+00,
2458095.500000000, A.D. 2017-Dec-08 00:00:00.0000, -2.950473015148117E+08, -1.432551898049705E+08,  4.022044032794536E+07,  1.012753712454073E+01, -1.795917357671664E+01, -6.949537798216836E-01,  1.102239541806855E+03,  3.304431015430707E+08, -1.341559333742306E+00,
2458096.500000000, A.D. 2017-Dec-09 00:00:00.0000, -2.941682556873582E+08, -1.448048887232078E+08,  4.015984715152548E+07,  1.022071537487474E+01, -1.791339711353737E+01, -7.076650089445407E-01,  1.101853807913687E+03,  3.303274614311039E+08, -1.335287882836672E+00,
2458097.500000000, A.D. 2017-Dec-10 00:00:00.0000, -2.932811672254213E+08, -1.463506093745262E+08,  4.009815599958490E+07,  1.031370864631302E+01, -1.786708413512801E+01, -7.203698079835172E-01,  1.101469887691518E+03,  3.302123650440240E+08, -1.328973129673972E+00,
2458098.500000000, A.D. 2017-Dec-11 00:00:00.0000, -2.923860522596971E+08, -1.478923054226376E+08,  4.003536744632652E+07,  1.040651350018364E+01, -1.782023507701937E+01, -7.330677451536483E-01,  1.101087793602475E+03,  3.300978161178825E+08, -1.322615196510572E+00,
2458099.500000000, A.D. 2017-Dec-12 00:00:00.0000, -2.914829272181666E+08, -1.494299305700086E+08,  3.997148210331562E+07,  1.049912649360848E+01, -1.777285040080693E+01, -7.457583873756652E-01,  1.100707538073088E+03,  3.299838183780597E+08, -1.316214208127783E+00,
2458100.500000000, A.D. 2017-Dec-13 00:00:00.0000, -2.905718088264484E+08, -1.509634385601184E+08,  3.990650061959059E+07,  1.059154417972564E+01, -1.772493059427156E+01, -7.584413002995110E-01,  1.100329133493560E+03,  3.298703755390443E+08, -1.309770291835828E+00,
2458101.500000000, A.D. 2017-Dec-14 00:00:00.0000, -2.896527141081349E+08, -1.524927831797257E+08,  3.984042368177168E+07,  1.068376310791405E+01, -1.767647617149677E+01, -7.711160483281070E-01,  1.099952592217037E+03,  3.297574913042172E+08, -1.303283577478294E+00,
2458102.500000000, A.D. 2017-Dec-15 00:00:00.0000, -2.887256603851057E+08, -1.540179182611464E+08,  3.977325201416774E+07,  1.077577982401992E+01, -1.762748767298676E+01, -7.837821946415415E-01,  1.099577926558881E+03,  3.296451693656303E+08, -1.296754197434549E+00,
2458103.500000000, A.D. 2017-Dec-16 00:00:00.0000, -2.877906652778241E+08, -1.555387976845417E+08,  3.970498637888082E+07,  1.086759087058499E+01, -1.757796566577990E+01, -7.964393012213717E-01,  1.099205148795935E+03,  3.295334134037890E+08, -1.290182286622750E+00,
